IRIDIUM 116             
1 43072U 17083C   24189.25054640  .00000067  00000+0  16723-4 0  9990
2 43072  86.3957 258.6757 0002355  92.4702 267.6763 14.34218048342411
IRIDIUM 130             
1 43073U 17083D   24189.21883327  .00000056  00000+0  12934-4 0  9997
2 43073  86.3965 258.8953 0002355  93.7796 266.3669 14.34218145342350
IRIDIUM 151             
1 43074U 17083E   24189.26323084 -.00000026  00000+0 -16220-4 0  9993
2 43074  86.3958 258.7120 0001959  92.1301 268.0119 14.34217838342382
IRIDIUM 134             
1 43075U 17083F   24189.58036144  .00000083  00000+0  22507-4 0  9993
2 43075  86.3960 258.5780 0002483  93.8366 266.3114 14.34218135342396
IRIDIUM 137             
1 43076U 17083G   24189.59304593  .00000345  00000+0  11604-3 0  9997
2 43076  86.3961 258.6510 0002151  82.3396 277.8044 14.34218557342463
IRIDIUM 141             
1 43077U 17083H   24189.58670635  .00000365  00000+0  12314-3 0  9991
2 43077  86.3956 258.5246 0002177  98.4736 261.6707 14.34218220342461
IRIDIUM 153             
1 43078U 17083J   24189.39934434  .00000243  00000+0  79589-4 0  9994
2 43078  86.3969 227.0709 0002094 106.3961 253.7465 14.34217571343549
IRIDIUM 131             
1 43079U 17083K   24189.57401133  .00000346  00000+0  11635-3 0  9991
2 43079  86.3963 258.6685 0002106  91.8041 268.3396 14.34216214342398
